API VERSION: 1.2
API SOURCE: NASA/JPL Horizons API



*******************************************************************************
Ephemeris / API_USER Wed Apr 15 10:19:46 2026 Pasadena, USA      / Horizons
*******************************************************************************
Target body name: Mars (499)                      {source: mar099}
Center body name: Earth (399)                     {source: DE441}
Center-site name: BODY CENTER
*******************************************************************************
Start time      : A.D. 2026-Jul-24 07:17:00.0000 TDB
Stop  time      : A.D. 2026-Jul-26 07:17:00.0000 TDB
Step-size       : 60 minutes
*******************************************************************************
Center geodetic : 0.0, 0.0, 0.0                   {E-lon(deg),Lat(deg),Alt(km)}
Center cylindric: 0.0, 0.0, 0.0                   {E-lon(deg),Dxy(km),Dz(km)}
Center radii    : 6378.137, 6378.137, 6356.752 km {Equator_a, b, pole_c}
Output units    : AU-D
Calendar mode   : Mixed Julian/Gregorian
Output type     : GEOMETRIC cartesian states
Output format   : 3 (position, velocity, LT, range, range-rate)
EOP file        : eop.260414.p260711
EOP coverage    : DATA-BASED 1962-JAN-20 TO 2026-APR-14. PREDICTS-> 2026-JUL-10
Reference frame : Ecliptic of J2000.0
*******************************************************************************
            JDTDB,            Calendar Date (TDB),                      X,                      Y,                      Z,                     VX,                     VY,                     VZ,                     LT,                     RG,                     RR,
**************************************************************************************************************************************************************************************************************************************************************************
$$SOE
2461247.053472222, A.D. 2026-Jul-25 13:17:00.0000,  4.095149686084008E-01,  1.981273425930363E+00,  1.353269635855560E-04, -2.440407055718801E-02,  1.123094561743420E-03,  4.641321237419293E-04,  1.168475560407468E-02,  2.023152716955783E+00, -3.839854452635313E-03,
2461247.095138889, A.D. 2026-Jul-25 14:17:00.0000,  4.084981888619441E-01,  1.981319921769360E+00,  1.546659106889190E-04, -2.440135584504590E-02,  1.108706255098796E-03,  4.641373229849554E-04,  1.168383136950026E-02,  2.022992690699889E+00, -3.841405916770374E-03,
2461247.136805556, A.D. 2026-Jul-25 15:17:00.0000,  4.074815224069686E-01,  1.981365818163668E+00,  1.740050726233686E-04, -2.439863256559181E-02,  1.094321215934225E-03,  4.641424349777952E-04,  1.168290676150847E-02,  2.022832599788783E+00, -3.842957904082529E-03,
2461247.178472222, A.D. 2026-Jul-25 16:17:00.0000,  4.064649696005309E-01,  1.981411115249383E+00,  1.933444456641592E-04, -2.439590071432243E-02,  1.079939443054653E-03,  4.641474553302914E-04,  1.168198177997276E-02,  2.022672444200553E+00, -3.844510418838945E-03,
2461247.220138889, A.D. 2026-Jul-25 17:17:00.0000,  4.054485307998969E-01,  1.981455813162699E+00,  2.126840259046606E-04, -2.439316028644056E-02,  1.065560942376853E-03,  4.641523800460387E-04,  1.168105642476642E-02,  2.022512223913256E+00, -3.846063458298673E-03,
2461247.261805556, A.D. 2026-Jul-25 18:17:00.0000,  4.044322063624522E-01,  1.981499912040194E+00,  2.320238093199084E-04, -2.439041128191683E-02,  1.051185725847398E-03,  4.641572078713293E-04,  1.168013069576402E-02,  2.022351938905181E+00, -3.847617014780173E-03,
2461247.303472222, A.D. 2026-Jul-25 19:17:00.0000,  4.034159966454152E-01,  1.981543412018962E+00,  2.513637919162151E-04, -2.438765370886989E-02,  1.036813804959267E-03,  4.641619414379972E-04,  1.167920459284198E-02,  2.022191589154925E+00, -3.849171082670178E-03,
2461247.345138889, A.D. 2026-Jul-25 20:17:00.0000,  4.023999020055287E-01,  1.981586313236436E+00,  2.707039698642462E-04, -2.438488758094351E-02,  1.022445183427628E-03,  4.641665854637283E-04,  1.167827811587704E-02,  2.022031174641150E+00, -3.850725665056703E-03,
2461247.386805556, A.D. 2026-Jul-25 21:17:00.0000,  4.013839227990028E-01,  1.981628615829998E+00,  2.900443394994196E-04, -2.438211290882339E-02,  1.008079855871831E-03,  4.641711425841436E-04,  1.167735126474414E-02,  2.021870695342200E+00, -3.852280773327901E-03,
2461247.428472222, A.D. 2026-Jul-25 22:17:00.0000,  4.003680593817380E-01,  1.981670319936728E+00,  3.093848971963985E-04, -2.437932969647909E-02,  9.937178142090731E-04,  4.641756120217745E-04,  1.167642403931515E-02,  2.021710151235891E+00, -3.853836420175990E-03,
2461247.470138889, A.D. 2026-Jul-25 23:17:00.0000,  3.993523121096084E-01,  1.981711425693412E+00,  3.287256392342222E-04, -2.437653794155524E-02,  9.793590532640975E-04,  4.641799901883130E-04,  1.167549643945930E-02,  2.021549542299582E+00, -3.855392614196409E-03,
2461247.511805556, A.D. 2026-Jul-26 00:17:00.0000,  3.983366813386621E-01,  1.981751933236744E+00,  3.480665617146278E-04, -2.437373763876153E-02,  9.650035741695802E-04,  4.641842725627238E-04,  1.167456846504457E-02,  2.021388868510412E+00, -3.856949357237772E-03,
2461247.553472222, A.D. 2026-Jul-26 01:17:00.0000,  3.973211674251496E-01,  1.981791842703616E+00,  3.674076605724090E-04, -2.437092878446699E-02,  9.506513850441009E-04,  4.641884559460560E-04,  1.167364011593927E-02,  2.021228129845582E+00, -3.858506644643559E-03,
2461247.595138889, A.D. 2026-Jul-26 02:17:00.0000,  3.963057707253706E-01,  1.981831154231374E+00,  3.867489316650639E-04, -2.436811138075032E-02,  9.363024988323547E-04,  4.641925402455650E-04,  1.167271139201341E-02,  2.021067326282582E+00, -3.860064468153929E-03,
2461247.636805556, A.D. 2026-Jul-26 03:17:00.0000,  3.952904915953437E-01,  1.981869867957858E+00,  4.060903709376458E-04, -2.436528543860483E-02,  9.219569246997055E-04,  4.641965293770072E-04,  1.167178229313849E-02,  2.020906457799167E+00, -3.861622824951296E-03,
2461247.678472222, A.D. 2026-Jul-26 04:17:00.0000,  3.942753303905597E-01,  1.981907984021107E+00,  4.254319745181882E-04, -2.436245097104782E-02,  9.076146628817408E-04,  4.642004275775983E-04,  1.167085281918559E-02,  2.020745524373012E+00, -3.863181721345856E-03,
2461247.720138889, A.D. 2026-Jul-26 05:17:00.0000,  3.932602874660414E-01,  1.981945502559002E+00,  4.447737386633189E-04, -2.435960798670138E-02,  8.932757061329856E-04,  4.642042364328478E-04,  1.166992297002340E-02,  2.020584525981382E+00, -3.864741170106825E-03,
2461247.761805556, A.D. 2026-Jul-26 06:17:00.0000,  3.922453631766040E-01,  1.981982423709080E+00,  4.641156596200033E-04, -2.435675648678796E-02,  8.789400467230974E-04,  4.642079539518240E-04,  1.166899274551747E-02,  2.020423462600999E+00, -3.866301183034193E-03,
2461247.803472222, A.D. 2026-Jul-26 07:17:00.0000,  3.912305578771338E-01,  1.982018747608649E+00,  4.834577335011346E-04, -2.435389646743000E-02,  8.646076816926059E-04,  4.642115760590230E-04,  1.166806214553119E-02,  2.020262334208207E+00, -3.867861766268846E-03,
